{
  "norad_id": 59029,
  "name": "STARLINK-31224",
  "history": [
    {
      "epoch": "2026-03-28T19:16:06.898368Z",
      "apogee_km": 483.74435868223827,
      "perigee_km": 482.3077683599986,
      "latitude_deg": 3.5133690623661894e-05,
      "longitude_deg": 163.62862579649286,
      "height_km": 483.16856760158447,
      "semi_major_axis_km": 6861.163063521119,
      "eccentricity": 0.00010469,
      "inclination_deg": 43.0024,
      "raan_deg": 278.8754,
      "arg_perigee_deg": 239.3648,
      "mean_anomaly_deg": 120.7101,
      "mean_motion_rev_day": 15.27587692
    }
  ]
}